CCSDS_OMM_VERS = 2.0
CREATION_DATE  = 
ORIGINATOR     = 

OBJECT_NAME    = SL-16 R/B
OBJECT_ID      = 1993-016B
CENTER_NAME    = EARTH
REF_FRAME      = TEME
TIME_SYSTEM    = UTC
MEAN_ELEMENT_THEORY = SGP/SGP4

EPOCH          = 2026-02-07T02:32:36.170016
MEAN_MOTION    = 14.15304015
ECCENTRICITY   = .00101995
INCLINATION    = 71.0072
RA_OF_ASC_NODE = 279.4199
ARG_OF_PERICENTER = 356.0853
MEAN_ANOMALY   = 4.0188

EPHEMERIS_TYPE = 0
CLASSIFICATION_TYPE = U
NORAD_CAT_ID   = 22566
ELEMENT_SET_NO = 999
REV_AT_EPOCH   = 69784
BSTAR          = -.1889676E-4
MEAN_MOTION_DOT = -.84E-6
MEAN_MOTION_DDOT = 0

CCSDS_OMM_VERS = 2.0
CREATION_DATE  = 
ORIGINATOR     = 

OBJECT_NAME    = COSMOS 2242
OBJECT_ID      = 1993-024A
CENTER_NAME    = EARTH
REF_FRAME      = TEME
TIME_SYSTEM    = UTC
MEAN_ELEMENT_THEORY = SGP/SGP4

EPOCH          = 2026-02-07T05:05:47.269824
MEAN_MOTION    = 14.96422626
ECCENTRICITY   = .0017685
INCLINATION    = 82.5192
RA_OF_ASC_NODE = 295.8663
ARG_OF_PERICENTER = 51.0907
MEAN_ANOMALY   = 309.1888

EPHEMERIS_TYPE = 0
CLASSIFICATION_TYPE = U
NORAD_CAT_ID   = 22626
ELEMENT_SET_NO = 999
REV_AT_EPOCH   = 77583
BSTAR          = .2374E-3
MEAN_MOTION_DOT = .2725E-4
MEAN_MOTION_DDOT = 0

CCSDS_OMM_VERS = 2.0
CREATION_DATE  = 
ORIGINATOR     = 

OBJECT_NAME    = SL-16 R/B
OBJECT_ID      = 1993-059B
CENTER_NAME    = EARTH
REF_FRAME      = TEME
TIME_SYSTEM    = UTC
MEAN_ELEMENT_THEORY = SGP/SGP4

EPOCH          = 2026-02-07T11:30:58.176000
MEAN_MOTION    = 14.17227074
ECCENTRICITY   = .0019493
INCLINATION    = 70.9892
RA_OF_ASC_NODE = 74.8360
ARG_OF_PERICENTER = 257.9589
MEAN_ANOMALY   = 101.9350

EPHEMERIS_TYPE = 0
CLASSIFICATION_TYPE = U
NORAD_CAT_ID   = 22803
ELEMENT_SET_NO = 999
REV_AT_EPOCH   = 67525
BSTAR          = .12943E-3
MEAN_MOTION_DOT = .214E-5
MEAN_MOTION_DDOT = 0

CCSDS_OMM_VERS = 2.0
CREATION_DATE  = 
ORIGINATOR     = 

OBJECT_NAME    = ARIANE 40 R/B
OBJECT_ID      = 1993-061H
CENTER_NAME    = EARTH
REF_FRAME      = TEME
TIME_SYSTEM    = UTC
MEAN_ELEMENT_THEORY = SGP/SGP4

EPOCH          = 2026-02-07T04:22:46.909632
MEAN_MOTION    = 14.32844723
ECCENTRICITY   = .00109127
INCLINATION    = 98.4981
RA_OF_ASC_NODE = 107.6623
ARG_OF_PERICENTER = 20.5486
MEAN_ANOMALY   = 339.6135

EPHEMERIS_TYPE = 0
CLASSIFICATION_TYPE = U
NORAD_CAT_ID   = 22830
ELEMENT_SET_NO = 999
REV_AT_EPOCH   = 68973
BSTAR          = .11819785E-3
MEAN_MOTION_DOT = .279E-5
MEAN_MOTION_DDOT = 0

CCSDS_OMM_VERS = 2.0
CREATION_DATE  = 
ORIGINATOR     = 

OBJECT_NAME    = COSMOS 2278
OBJECT_ID      = 1994-023A
CENTER_NAME    = EARTH
REF_FRAME      = TEME
TIME_SYSTEM    = UTC
MEAN_ELEMENT_THEORY = SGP/SGP4

EPOCH          = 2026-02-07T11:15:43.235424
MEAN_MOTION    = 14.14363923
ECCENTRICITY   = .0006565
INCLINATION    = 71.0501
RA_OF_ASC_NODE = 238.3240
ARG_OF_PERICENTER = 70.5171
MEAN_ANOMALY   = 289.6660

EPHEMERIS_TYPE = 0
CLASSIFICATION_TYPE = U
NORAD_CAT_ID   = 23087
ELEMENT_SET_NO = 999
REV_AT_EPOCH   = 64053
BSTAR          = -.71755E-4
MEAN_MOTION_DOT = -.184E-5
MEAN_MOTION_DDOT = 0

CCSDS_OMM_VERS = 2.0
CREATION_DATE  = 
ORIGINATOR     = 

OBJECT_NAME    = SL-16 R/B
OBJECT_ID      = 1994-023B
CENTER_NAME    = EARTH
REF_FRAME      = TEME
TIME_SYSTEM    = UTC
MEAN_ELEMENT_THEORY = SGP/SGP4

EPOCH          = 2026-02-07T11:00:35.682912
MEAN_MOTION    = 14.15003525
ECCENTRICITY   = .0004461
INCLINATION    = 70.9998
RA_OF_ASC_NODE = 134.3774
ARG_OF_PERICENTER = 313.4768
MEAN_ANOMALY   = 46.5983

EPHEMERIS_TYPE = 0
CLASSIFICATION_TYPE = U
NORAD_CAT_ID   = 23088
ELEMENT_SET_NO = 999
REV_AT_EPOCH   = 64181
BSTAR          = .26051E-4
MEAN_MOTION_DOT = .3E-7
MEAN_MOTION_DDOT = 0

CCSDS_OMM_VERS = 2.0
CREATION_DATE  = 
ORIGINATOR     = 

OBJECT_NAME    = SL-16 R/B
OBJECT_ID      = 1994-074B
CENTER_NAME    = EARTH
REF_FRAME      = TEME
TIME_SYSTEM    = UTC
MEAN_ELEMENT_THEORY = SGP/SGP4

EPOCH          = 2026-02-07T01:53:59.531136
MEAN_MOTION    = 14.79371264
ECCENTRICITY   = .0005784
INCLINATION    = 97.7149
RA_OF_ASC_NODE = 70.1312
ARG_OF_PERICENTER = 332.8982
MEAN_ANOMALY   = 50.3189

EPHEMERIS_TYPE = 0
CLASSIFICATION_TYPE = U
NORAD_CAT_ID   = 23343
ELEMENT_SET_NO = 999
REV_AT_EPOCH   = 68272
BSTAR          = .99251945E-4
MEAN_MOTION_DOT = .69E-5
MEAN_MOTION_DDOT = 0

CCSDS_OMM_VERS = 2.0
CREATION_DATE  = 
ORIGINATOR     = 

OBJECT_NAME    = SL-16 R/B
OBJECT_ID      = 1994-077B
CENTER_NAME    = EARTH
REF_FRAME      = TEME
TIME_SYSTEM    = UTC
MEAN_ELEMENT_THEORY = SGP/SGP4

EPOCH          = 2026-02-07T10:51:06.973920
MEAN_MOTION    = 14.15556854
ECCENTRICITY   = .0004348
INCLINATION    = 70.9814
RA_OF_ASC_NODE = 56.1032
ARG_OF_PERICENTER = 237.5119
MEAN_ANOMALY   = 122.5584

EPHEMERIS_TYPE = 0
CLASSIFICATION_TYPE = U
NORAD_CAT_ID   = 23405
ELEMENT_SET_NO = 999
REV_AT_EPOCH   = 61195
BSTAR          = .53108E-4
MEAN_MOTION_DOT = .56E-6
MEAN_MOTION_DDOT = 0

CCSDS_OMM_VERS = 2.0
CREATION_DATE  = 
ORIGINATOR     = 

OBJECT_NAME    = ARIANE 40+ R/B
OBJECT_ID      = 1995-021B
CENTER_NAME    = EARTH
REF_FRAME      = TEME
TIME_SYSTEM    = UTC
MEAN_ELEMENT_THEORY = SGP/SGP4

EPOCH          = 2026-02-07T04:01:24.110688
MEAN_MOTION    = 14.39749779
ECCENTRICITY   = .00059937
INCLINATION    = 98.4560
RA_OF_ASC_NODE = 110.0542
ARG_OF_PERICENTER = 226.3215
MEAN_ANOMALY   = 187.7433

EPHEMERIS_TYPE = 0
CLASSIFICATION_TYPE = U
NORAD_CAT_ID   = 23561
ELEMENT_SET_NO = 999
REV_AT_EPOCH   = 61485
BSTAR          = .14435651E-3
MEAN_MOTION_DOT = .409E-5
MEAN_MOTION_DDOT = 0

CCSDS_OMM_VERS = 2.0
CREATION_DATE  = 
ORIGINATOR     = 

OBJECT_NAME    = SL-16 R/B
OBJECT_ID      = 1995-058B
CENTER_NAME    = EARTH
REF_FRAME      = TEME
TIME_SYSTEM    = UTC
MEAN_ELEMENT_THEORY = SGP/SGP4

EPOCH          = 2026-02-07T00:48:28.363968
MEAN_MOTION    = 14.15491427
ECCENTRICITY   = .00123701
INCLINATION    = 71.0189
RA_OF_ASC_NODE = 244.6166
ARG_OF_PERICENTER = 176.1023
MEAN_ANOMALY   = 184.0199

EPHEMERIS_TYPE = 0
CLASSIFICATION_TYPE = U
NORAD_CAT_ID   = 23705
ELEMENT_SET_NO = 999
REV_AT_EPOCH   = 56351
BSTAR          = .18300384E-3
MEAN_MOTION_DOT = .31E-5
MEAN_MOTION_DDOT = 0

CCSDS_OMM_VERS = 2.0
CREATION_DATE  = 
ORIGINATOR     = 

OBJECT_NAME    = SL-16 R/B
OBJECT_ID      = 1996-051B
CENTER_NAME    = EARTH
REF_FRAME      = TEME
TIME_SYSTEM    = UTC
MEAN_ELEMENT_THEORY = SGP/SGP4

EPOCH          = 2026-02-07T12:00:26.870400
MEAN_MOTION    = 14.12406982
ECCENTRICITY   = .0017621
INCLINATION    = 70.7565
RA_OF_ASC_NODE = 239.1394
ARG_OF_PERICENTER = 190.2193
MEAN_ANOMALY   = 169.8571

EPHEMERIS_TYPE = 0
CLASSIFICATION_TYPE = U
NORAD_CAT_ID   = 24298
ELEMENT_SET_NO = 999
REV_AT_EPOCH   = 51738
BSTAR          = .69664E-4
MEAN_MOTION_DOT = .79E-6
MEAN_MOTION_DDOT = 0

CCSDS_OMM_VERS = 2.0
CREATION_DATE  = 
ORIGINATOR     = 

OBJECT_NAME    = ORBVIEW 2 (SEASTAR)
OBJECT_ID      = 1997-037A
CENTER_NAME    = EARTH
REF_FRAME      = TEME
TIME_SYSTEM    = UTC
MEAN_ELEMENT_THEORY = SGP/SGP4

EPOCH          = 2026-02-07T10:41:52.239264
MEAN_MOTION    = 14.35471263
ECCENTRICITY   = .0002876
INCLINATION    = 98.8513
RA_OF_ASC_NODE = 201.9653
ARG_OF_PERICENTER = 133.6052
MEAN_ANOMALY   = 226.5372

EPHEMERIS_TYPE = 0
CLASSIFICATION_TYPE = U
NORAD_CAT_ID   = 24883
ELEMENT_SET_NO = 999
REV_AT_EPOCH   = 50413
BSTAR          = .16906E-3
MEAN_MOTION_DOT = .439E-5
MEAN_MOTION_DDOT = 0

